63284,STARLINK-33673,2025,94.27,-1.0,+,43.0,Active,0,LEO,USA,USA,Unknown,Unknown,Unknown,1 63284U 25053V   25266.82567461  .00048236  00000+0  17519-2 0  9995,2 63284  43.0001  96.3375 0000630 235.3193 124.7600 15.27562876 30878,15.27562876,6.3e-05,LEO
63285,STARLINK-33662,2025,94.27,-1.0,+,43.0,Active,0,LEO,USA,USA,Unknown,Unknown,Unknown,1 63285U 25053W   25267.27355271  .00049108  00000+0  17821-2 0  9995,2 63285  43.0014 101.4826 0000456 279.2108  80.8692 15.27581651 30742,15.27581651,4.56e-05,LEO
63286,STARLINK-33613,2025,94.27,-1.0,+,43.0,Active,0,LEO,USA,USA,Unknown,Unknown,Unknown,1 63286U 25053X   25267.23000266  .00039773  00000+0  14457-2 0  9992,2 63286  42.9976 102.0215 0002900 277.5653  82.4869 15.27608105 30736,15.27608105,0.00029,LEO
63287,STARLINK-33680,2025,94.27,-1.0,+,43.0,Active,0,LEO,USA,USA,Unknown,Unknown,Unknown,1 63287U 25053Y   25267.25812611  .00045348  00000+0  16429-2 0  9996,2 63287  43.0000 101.3715 0002953 267.4308  92.6205 15.27666738 30796,15.27666738,0.0002953,LEO
63307,STARLINK-11568 [DTC],2025,91.67,-1.0,+,43.0,Active,0,LEO,USA,USA,Unknown,Unknown,Unknown,1 63307U 25057A   25266.92611063  .00472187  00000+0  34802-2 0  9994,2 63307  42.9996 189.4054 0001382 252.6671 107.4045 15.70826455 30955,15.70826455,0.0001382,LEO
63308,STARLINK-11575 [DTC],2025,91.66,-1.0,+,43.0,Active,0,LEO,USA,USA,Unknown,Unknown,Unknown,1 63308U 25057B   25267.07982525  .00296324  00000+0  22196-2 0  9996,2 63308  43.0000 188.8521 0001073 237.3999 122.6765 15.70967084 30970,15.70967084,0.0001073,LEO
63309,STARLINK-11585 [DTC],2025,91.67,-1.0,+,43.0,Active,0,LEO,USA,USA,Unknown,Unknown,Unknown,1 63309U 25057C   25267.12749934  .00345395  00000+0  25753-2 0  9993,2 63309  43.0005 188.3397 0002335 270.0336  90.0264 15.70928978 31010,15.70928978,0.0002335,LEO
63310,STARLINK-11587 [DTC],2025,91.66,-1.0,+,43.0,Active,0,LEO,USA,USA,Unknown,Unknown,Unknown,1 63310U 25057D   25266.97389331  .00437875  00000+0  31913-2 0  9998,2 63310  42.9993 189.7883 0005806 291.9572  68.0678 15.71189305 30951,15.71189305,0.0005806,LEO
63311,STARLINK-11589 [DTC],2025,91.67,-1.0,+,43.0,Active,0,LEO,USA,USA,Unknown,Unknown,Unknown,1 63311U 25057E   25266.85203562  .00302773  00000+0  22768-2 0  9993,2 63311  43.0004 190.5978 0001857 292.0325  68.0345 15.70854459 30939,15.70854459,0.0001857,LEO
63312,STARLINK-11650 [DTC],2025,91.67,-1.0,+,43.0,Active,0,LEO,USA,USA,Unknown,Unknown,Unknown,1 63312U 25057F   25266.83701730  .00208354  00000+0  15826-2 0  9999,2 63312  42.9993 190.4759 0001513 315.8125  44.2621 15.70903723 30967,15.70903723,0.0001513,LEO
63313,STARLINK-11648 [DTC],2025,91.67,-1.0,+,43.0,Active,0,LEO,USA,USA,Unknown,Unknown,Unknown,1 63313U 25057G   25266.83610463  .00157461  00000+0  12035-2 0  9993,2 63313  42.9999 190.4685 0002150 312.6295  47.4391 15.70918849 30934,15.70918849,0.000215,LEO
63314,STARLINK-11640 [DTC],2025,91.66,-1.0,+,43.0,Active,0,LEO,USA,USA,Unknown,Unknown,Unknown,1 63314U 25057H   25267.08513115  .00450305  00000+0  33084-2 0  9998,2 63314  43.0011 188.8910 0001683 249.8751 110.1936 15.70967870 30977,15.7096787,0.0001683,LEO
63315,STARLINK-11652 [DTC],2025,91.65,-1.0,+,43.0,Active,0,LEO,USA,USA,Unknown,Unknown,Unknown,1 63315U 25057J   25266.50226102  .00324855  00000+0  24002-2 0  9992,2 63315  43.0011 192.2545 0003434 293.8956  66.1552 15.71205829 30911,15.71205829,0.0003434,LEO
63316,STARLINK-11645 [DTC],2025,91.67,-1.0,+,43.0,Active,0,LEO,USA,USA,Unknown,Unknown,Unknown,1 63316U 25057K   25265.18825569  .00227977  00000+0  17269-2 0  9992,2 63316  42.9996 200.4744 0001893 264.2715  95.7936 15.70907889 30702,15.70907889,0.0001893,LEO
63317,STARLINK-11633 [DTC],2025,91.66,-1.0,+,43.0,Active,0,LEO,USA,USA,Unknown,Unknown,Unknown,1 63317U 25057L   25266.92080237  .00332956  00000+0  24929-2 0  9996,2 63317  42.9990 189.3602 0001240 284.5041  75.5689 15.70866566 30952,15.70866566,0.000124,LEO
63318,STARLINK-11593 [DTC],2025,91.67,-1.0,+,43.0,Active,0,LEO,USA,USA,Unknown,Unknown,Unknown,1 63318U 25057M   25267.18575696  .00396851  00000+0  29533-2 0  9994,2 63318  43.0008 187.9101 0001555 276.6946  83.3745 15.70820968 31023,15.70820968,0.0001555,LEO
