[{"OBJECT_NAME":"STARLINK-33673","OBJECT_ID":"2025-053V","EPOCH":"2025-09-23T19:48:58.286304","MEAN_MOTION":15.27562876,"ECCENTRICITY":6.306e-5,"INCLINATION":43.0001,"RA_OF_ASC_NODE":96.3375,"ARG_OF_PERICENTER":235.3193,"MEAN_ANOMALY":124.76,"EPHEMERIS_TYPE":0,"CLASSIFICATION_TYPE":"U","NORAD_CAT_ID":63284,"ELEMENT_SET_NO":999,"REV_AT_EPOCH":3087,"BSTAR":0.0017518658,"MEAN_MOTION_DOT":0.00048236,"MEAN_MOTION_DDOT":0},{"OBJECT_NAME":"STARLINK-33662","OBJECT_ID":"2025-053W","EPOCH":"2025-09-24T06:33:54.954144","MEAN_MOTION":15.27581651,"ECCENTRICITY":4.567e-5,"INCLINATION":43.0014,"RA_OF_ASC_NODE":101.4826,"ARG_OF_PERICENTER":279.2108,"MEAN_ANOMALY":80.8692,"EPHEMERIS_TYPE":0,"CLASSIFICATION_TYPE":"U","NORAD_CAT_ID":63285,"ELEMENT_SET_NO":999,"REV_AT_EPOCH":3074,"BSTAR":0.0017821476,"MEAN_MOTION_DOT":0.00049108,"MEAN_MOTION_DDOT":0},{"OBJECT_NAME":"STARLINK-33613","OBJECT_ID":"2025-053X","EPOCH":"2025-09-24T05:31:12.229824","MEAN_MOTION":15.27608105,"ECCENTRICITY":0.00029002,"INCLINATION":42.9976,"RA_OF_ASC_NODE":102.0215,"ARG_OF_PERICENTER":277.5653,"MEAN_ANOMALY":82.4869,"EPHEMERIS_TYPE":0,"CLASSIFICATION_TYPE":"U","NORAD_CAT_ID":63286,"ELEMENT_SET_NO":999,"REV_AT_EPOCH":3073,"BSTAR":0.0014457097,"MEAN_MOTION_DOT":0.00039773,"MEAN_MOTION_DDOT":0},{"OBJECT_NAME":"STARLINK-33680","OBJECT_ID":"2025-053Y","EPOCH":"2025-09-24T06:11:42.095904","MEAN_MOTION":15.27666738,"ECCENTRICITY":0.00029537,"INCLINATION":43,"RA_OF_ASC_NODE":101.3715,"ARG_OF_PERICENTER":267.4308,"MEAN_ANOMALY":92.6205,"EPHEMERIS_TYPE":0,"CLASSIFICATION_TYPE":"U","NORAD_CAT_ID":63287,"ELEMENT_SET_NO":999,"REV_AT_EPOCH":3079,"BSTAR":0.001642851,"MEAN_MOTION_DOT":0.00045348,"MEAN_MOTION_DDOT":0},{"OBJECT_NAME":"STARLINK-11568 [DTC]","OBJECT_ID":"2025-057A","EPOCH":"2025-09-23T22:13:35.958432","MEAN_MOTION":15.70826455,"ECCENTRICITY":0.00013822,"INCLINATION":42.9996,"RA_OF_ASC_NODE":189.4054,"ARG_OF_PERICENTER":252.6671,"MEAN_ANOMALY":107.4045,"EPHEMERIS_TYPE":0,"CLASSIFICATION_TYPE":"U","NORAD_CAT_ID":63307,"ELEMENT_SET_NO":999,"REV_AT_EPOCH":3095,"BSTAR":0.0034802213,"MEAN_MOTION_DOT":0.00472187,"MEAN_MOTION_DDOT":0},{"OBJECT_NAME":"STARLINK-11575 [DTC]","OBJECT_ID":"2025-057B","EPOCH":"2025-09-24T01:54:56.901600","MEAN_MOTION":15.70967084,"ECCENTRICITY":0.00010731,"INCLINATION":43,"RA_OF_ASC_NODE":188.8521,"ARG_OF_PERICENTER":237.3999,"MEAN_ANOMALY":122.6765,"EPHEMERIS_TYPE":0,"CLASSIFICATION_TYPE":"U","NORAD_CAT_ID":63308,"ELEMENT_SET_NO":999,"REV_AT_EPOCH":3097,"BSTAR":0.0022195761,"MEAN_MOTION_DOT":0.00296324,"MEAN_MOTION_DDOT":0},{"OBJECT_NAME":"STARLINK-11585 [DTC]","OBJECT_ID":"2025-057C","EPOCH":"2025-09-24T03:03:35.942976","MEAN_MOTION":15.70928978,"ECCENTRICITY":0.00023354,"INCLINATION":43.0005,"RA_OF_ASC_NODE":188.3397,"ARG_OF_PERICENTER":270.0336,"MEAN_ANOMALY":90.0264,"EPHEMERIS_TYPE":0,"CLASSIFICATION_TYPE":"U","NORAD_CAT_ID":63309,"ELEMENT_SET_NO":999,"REV_AT_EPOCH":3101,"BSTAR":0.0025753125,"MEAN_MOTION_DOT":0.00345395,"MEAN_MOTION_DDOT":0},{"OBJECT_NAME":"STARLINK-11587 [DTC]","OBJECT_ID":"2025-057D","EPOCH":"2025-09-23T23:22:24.381984","MEAN_MOTION":15.71189305,"ECCENTRICITY":0.00058063,"INCLINATION":42.9993,"RA_OF_ASC_NODE":189.7883,"ARG_OF_PERICENTER":291.9572,"MEAN_ANOMALY":68.0678,"EPHEMERIS_TYPE":0,"CLASSIFICATION_TYPE":"U","NORAD_CAT_ID":63310,"ELEMENT_SET_NO":999,"REV_AT_EPOCH":3095,"BSTAR":0.0031913135,"MEAN_MOTION_DOT":0.00437875,"MEAN_MOTION_DDOT":0},{"OBJECT_NAME":"STARLINK-11589 [DTC]","OBJECT_ID":"2025-057E","EPOCH":"2025-09-23T20:26:55.877568","MEAN_MOTION":15.70854459,"ECCENTRICITY":0.00018574,"INCLINATION":43.0004,"RA_OF_ASC_NODE":190.5978,"ARG_OF_PERICENTER":292.0325,"MEAN_ANOMALY":68.0345,"EPHEMERIS_TYPE":0,"CLASSIFICATION_TYPE":"U","NORAD_CAT_ID":63311,"ELEMENT_SET_NO":999,"REV_AT_EPOCH":3093,"BSTAR":0.0022767778,"MEAN_MOTION_DOT":0.00302773,"MEAN_MOTION_DDOT":0},{"OBJECT_NAME":"STARLINK-11650 [DTC]","OBJECT_ID":"2025-057F","EPOCH":"2025-09-23T20:05:18.294720","MEAN_MOTION":15.70903723,"ECCENTRICITY":0.00015133,"INCLINATION":42.9993,"RA_OF_ASC_NODE":190.4759,"ARG_OF_PERICENTER":315.8125,"MEAN_ANOMALY":44.2621,"EPHEMERIS_TYPE":0,"CLASSIFICATION_TYPE":"U","NORAD_CAT_ID":63312,"ELEMENT_SET_NO":999,"REV_AT_EPOCH":3096,"BSTAR":0.0015826412,"MEAN_MOTION_DOT":0.00208354,"MEAN_MOTION_DDOT":0},{"OBJECT_NAME":"STARLINK-11648 [DTC]","OBJECT_ID":"2025-057G","EPOCH":"2025-09-23T20:03:59.440032","MEAN_MOTION":15.70918849,"ECCENTRICITY":0.00021503,"INCLINATION":42.9999,"RA_OF_ASC_NODE":190.4685,"ARG_OF_PERICENTER":312.6295,"MEAN_ANOMALY":47.4391,"EPHEMERIS_TYPE":0,"CLASSIFICATION_TYPE":"U","NORAD_CAT_ID":63313,"ELEMENT_SET_NO":999,"REV_AT_EPOCH":3093,"BSTAR":0.0012034948,"MEAN_MOTION_DOT":0.00157461,"MEAN_MOTION_DDOT":0},{"OBJECT_NAME":"STARLINK-11640 [DTC]","OBJECT_ID":"2025-057H","EPOCH":"2025-09-24T02:02:35.331360","MEAN_MOTION":15.7096787,"ECCENTRICITY":0.0001683,"INCLINATION":43.0011,"RA_OF_ASC_NODE":188.891,"ARG_OF_PERICENTER":249.8751,"MEAN_ANOMALY":110.1936,"EPHEMERIS_TYPE":0,"CLASSIFICATION_TYPE":"U","NORAD_CAT_ID":63314,"ELEMENT_SET_NO":999,"REV_AT_EPOCH":3097,"BSTAR":0.0033084306,"MEAN_MOTION_DOT":0.00450305,"MEAN_MOTION_DDOT":0},{"OBJECT_NAME":"STARLINK-11652 [DTC]","OBJECT_ID":"2025-057J","EPOCH":"2025-09-23T12:03:15.352128","MEAN_MOTION":15.71205829,"ECCENTRICITY":0.00034342,"INCLINATION":43.0011,"RA_OF_ASC_NODE":192.2545,"ARG_OF_PERICENTER":293.8956,"MEAN_ANOMALY":66.1552,"EPHEMERIS_TYPE":0,"CLASSIFICATION_TYPE":"U","NORAD_CAT_ID":63315,"ELEMENT_SET_NO":999,"REV_AT_EPOCH":3091,"BSTAR":0.0024002115,"MEAN_MOTION_DOT":0.00324855,"MEAN_MOTION_DDOT":0},{"OBJECT_NAME":"STARLINK-11645 [DTC]","OBJECT_ID":"2025-057K","EPOCH":"2025-09-22T04:31:05.291616","MEAN_MOTION":15.70907889,"ECCENTRICITY":0.00018935,"INCLINATION":42.9996,"RA_OF_ASC_NODE":200.4744,"ARG_OF_PERICENTER":264.2715,"MEAN_ANOMALY":95.7936,"EPHEMERIS_TYPE":0,"CLASSIFICATION_TYPE":"U","NORAD_CAT_ID":63316,"ELEMENT_SET_NO":999,"REV_AT_EPOCH":3070,"BSTAR":0.001726942,"MEAN_MOTION_DOT":0.00227977,"MEAN_MOTION_DDOT":0},{"OBJECT_NAME":"STARLINK-11633 [DTC]","OBJECT_ID":"2025-057L","EPOCH":"2025-09-23T22:05:57.324768","MEAN_MOTION":15.70866566,"ECCENTRICITY":0.00012402,"INCLINATION":42.999,"RA_OF_ASC_NODE":189.3602,"ARG_OF_PERICENTER":284.5041,"MEAN_ANOMALY":75.5689,"EPHEMERIS_TYPE":0,"CLASSIFICATION_TYPE":"U","NORAD_CAT_ID":63317,"ELEMENT_SET_NO":999,"REV_AT_EPOCH":3095,"BSTAR":0.0024929329,"MEAN_MOTION_DOT":0.00332956,"MEAN_MOTION_DDOT":0},{"OBJECT_NAME":"STARLINK-11593 [DTC]","OBJECT_ID":"2025-057M","EPOCH":"2025-09-24T04:27:29.401344","MEAN_MOTION":15.70820968,"ECCENTRICITY":0.00015554,"INCLINATION":43.0008,"RA_OF_ASC_NODE":187.9101,"ARG_OF_PERICENTER":276.6946,"MEAN_ANOMALY":83.3745,"EPHEMERIS_TYPE":0,"CLASSIFICATION_TYPE":"U","NORAD_CAT_ID":63318,"ELEMENT_SET_NO":999,"REV_AT_EPOCH":3102,"BSTAR":0.0029532866,"MEAN_MOTION_DOT":0.00396851,"MEAN_MOTION_DDOT":0}]
